HERMES-3                
1 63835U 25052BR  26068.93751242  .00020316  00000+0  69958-3 0  9995
2 63835  97.3987 324.6131 0007993 112.9583 247.2502 15.30039785 54863
STARLINK-34616          
1 66320U 25253B   26068.72021285  .00041047  00000+0  14923-2 0  9999
2 66320  43.0023 211.9475 0001173 258.2993 101.7727 15.27592386 20331
